start=new Date('2023-06-02T00:00:00.000Z').valueOf();
sats=[{"TIME_SYSTEM":"UTC","ELEMENT_SET_NO":"999","FILE":"3922718","ARG_OF_PERICENTER":"249.3969","PERIOD":"95.839","MEAN_MOTION_DDOT":"0.0000000000000","OBJECT_NAME":"STARLINK-5636","COUNTRY_CODE":"US","CLASSIFICATION_TYPE":"U","LAUNCH_DATE":"2023-02-02","INCLINATION":"43.0033","APOAPSIS":"559.877","SITE":"AFETR","REF_FRAME":"TEME","OBJECT_TYPE":"PAYLOAD","MEAN_ELEMENT_THEORY":"SGP4","TLE_LINE1":"1 55454U 23015F   23152.84377694  .00002588  00000-0  20663-3 0  9998","EPHEMERIS_TYPE":"0","PERIAPSIS":"558.373","MEAN_ANOMALY":"110.6757","BSTAR":"0.00020663000000","RCS_SIZE":"LARGE","DECAY_DATE":null,"TLE_LINE2":"2 55454  43.0033  64.2825 0001084 249.3969 110.6757 15.02522009 18541","ECCENTRICITY":"0.00010840","NORAD_CAT_ID":"55454","GP_ID":"232999773","MEAN_MOTION_DOT":"0.00002588","REV_AT_EPOCH":"1854","SEMIMAJOR_AXIS":"6937.260","OBJECT_ID":"2023-015F","MEAN_MOTION":"15.02522009","EPOCH":"2023-06-01T20:15:02.327616","RA_OF_ASC_NODE":"64.2825","CENTER_NAME":"EARTH"},{"MEAN_MOTION_DOT":"-0.00000832","SEMIMAJOR_AXIS":"6937.232","REV_AT_EPOCH":"1854","GP_ID":"233000023","RA_OF_ASC_NODE":"64.3781","MEAN_MOTION":"15.02531068","EPOCH":"2023-06-01T20:32:37.791744","CENTER_NAME":"EARTH","OBJECT_ID":"2023-015G","BSTAR":"-0.00004654800000","PERIAPSIS":"558.164","MEAN_ANOMALY":"95.9728","TLE_LINE2":"2 55455  43.0045  64.3781 0001344 264.0962  95.9728 15.02531068 18541","NORAD_CAT_ID":"55455","ECCENTRICITY":"0.00013440","RCS_SIZE":"LARGE","DECAY_DATE":null,"APOAPSIS":"560.029","SITE":"AFETR","INCLINATION":"43.0045","LAUNCH_DATE":"2023-02-02","REF_FRAME":"TEME","EPHEMERIS_TYPE":"0","TLE_LINE1":"1 55455U 23015G   23152.85599296 -.00000832  00000-0 -46548-4 0  9997","OBJECT_TYPE":"PAYLOAD","MEAN_ELEMENT_THEORY":"SGP4","MEAN_MOTION_DDOT":"0.0000000000000","ELEMENT_SET_NO":"999","FILE":"3922718","TIME_SYSTEM":"UTC","PERIOD":"95.838","ARG_OF_PERICENTER":"264.0962","COUNTRY_CODE":"US","OBJECT_NAME":"STARLINK-5680","CLASSIFICATION_TYPE":"U"},{"DECAY_DATE":null,"RCS_SIZE":"LARGE","TLE_LINE2":"2 55456  43.0046  64.6557 0001293 268.0334  92.0361 15.02534006 18532","ECCENTRICITY":"0.00012930","NORAD_CAT_ID":"55456","PERIAPSIS":"558.191","MEAN_ANOMALY":"92.0361","BSTAR":"-0.00006605400000","OBJECT_ID":"2023-015H","EPOCH":"2023-06-01T18:40:55.034400","MEAN_MOTION":"15.02534006","RA_OF_ASC_NODE":"64.6557","CENTER_NAME":"EARTH","GP_ID":"233001274","MEAN_MOTION_DOT":"-0.00001096","REV_AT_EPOCH":"1853","SEMIMAJOR_AXIS":"6937.223","COUNTRY_CODE":"US","CLASSIFICATION_TYPE":"U","OBJECT_NAME":"STARLINK-5058","TIME_SYSTEM":"UTC","ELEMENT_SET_NO":"999","FILE":"3922718","ARG_OF_PERICENTER":"268.0334","PERIOD":"95.838","MEAN_MOTION_DDOT":"0.0000000000000","REF_FRAME":"TEME","OBJECT_TYPE":"PAYLOAD","MEAN_ELEMENT_THEORY":"SGP4","EPHEMERIS_TYPE":"0","TLE_LINE1":"1 55456U 23015H   23152.77841475 -.00001096  00000-0 -66054-4 0  9995","LAUNCH_DATE":"2023-02-02","INCLINATION":"43.0046","APOAPSIS":"559.985","SITE":"AFETR"},{"OBJECT_NAME":"STARLINK-5682","COUNTRY_CODE":"US","CLASSIFICATION_TYPE":"U","MEAN_MOTION_DDOT":"0.0000000000000","ARG_OF_PERICENTER":"266.5080","PERIOD":"95.838","TIME_SYSTEM":"UTC","FILE":"3922718","ELEMENT_SET_NO":"999","OBJECT_TYPE":"PAYLOAD","MEAN_ELEMENT_THEORY":"SGP4","EPHEMERIS_TYPE":"0","TLE_LINE1":"1 55457U 23015J   23152.78063665 -.00001637  00000-0 -10617-3 0  9998","REF_FRAME":"TEME","SITE":"AFETR","APOAPSIS":"560.037","LAUNCH_DATE":"2023-02-02","INCLINATION":"43.0048","ECCENTRICITY":"0.00013610","NORAD_CAT_ID":"55457","TLE_LINE2":"2 55457  43.0048  64.6720 0001361 266.5080  93.5606 15.02532398 18534","DECAY_DATE":null,"RCS_SIZE":"LARGE","BSTAR":"-0.00010617000000","MEAN_ANOMALY":"93.5606","PERIAPSIS":"558.148","CENTER_NAME":"EARTH","MEAN_MOTION":"15.02532398","EPOCH":"2023-06-01T18:44:07.006560","RA_OF_ASC_NODE":"64.6720","OBJECT_ID":"2023-015J","REV_AT_EPOCH":"1853","SEMIMAJOR_AXIS":"6937.228","MEAN_MOTION_DOT":"-0.00001637","GP_ID":"233001525"},{"RCS_SIZE":"LARGE","DECAY_DATE":null,"NORAD_CAT_ID":"55458","ECCENTRICITY":"0.00013690","TLE_LINE2":"2 55458  43.0045  64.2054 0001369 262.9149  97.1537 15.02533059 18541","MEAN_ANOMALY":"97.1537","PERIAPSIS":"558.141","BSTAR":"-0.00011179000000","OBJECT_ID":"2023-015K","CENTER_NAME":"EARTH","RA_OF_ASC_NODE":"64.2054","EPOCH":"2023-06-01T19:59:03.882048","MEAN_MOTION":"15.02533059","GP_ID":"233000273","SEMIMAJOR_AXIS":"6937.226","REV_AT_EPOCH":"1854","MEAN_MOTION_DOT":"-0.00001713","COUNTRY_CODE":"US","OBJECT_NAME":"STARLINK-5020","CLASSIFICATION_TYPE":"U","PERIOD":"95.838","ARG_OF_PERICENTER":"262.9149","ELEMENT_SET_NO":"999","FILE":"3922718","TIME_SYSTEM":"UTC","MEAN_MOTION_DDOT":"0.0000000000000","EPHEMERIS_TYPE":"0","TLE_LINE1":"1 55458U 23015K   23152.83268382 -.00001713  00000-0 -11179-3 0  9997","OBJECT_TYPE":"PAYLOAD","MEAN_ELEMENT_THEORY":"SGP4","REF_FRAME":"TEME","INCLINATION":"43.0045","LAUNCH_DATE":"2023-02-02","SITE":"AFETR","APOAPSIS":"560.040"},{"RCS_SIZE":"LARGE","DECAY_DATE":null,"TLE_LINE2":"2 55459  43.0047  64.6098 0001293 261.9099  98.1596 15.02533764 18533","NORAD_CAT_ID":"55459","ECCENTRICITY":"0.00012930","PERIAPSIS":"558.191","MEAN_ANOMALY":"98.1596","BSTAR":"-0.00008790200000","OBJECT_ID":"2023-015L","RA_OF_ASC_NODE":"64.6098","MEAN_MOTION":"15.02533764","EPOCH":"2023-06-01T18:31:19.629408","CENTER_NAME":"EARTH","GP_ID":"233000523","MEAN_MOTION_DOT":"-0.00001391","SEMIMAJOR_AXIS":"6937.223","REV_AT_EPOCH":"1853","OBJECT_NAME":"STARLINK-5669","COUNTRY_CODE":"US","CLASSIFICATION_TYPE":"U","FILE":"3922718","ELEMENT_SET_NO":"999","TIME_SYSTEM":"UTC","PERIOD":"95.838","ARG_OF_PERICENTER":"261.9099","MEAN_MOTION_DDOT":"0.0000000000000","REF_FRAME":"TEME","EPHEMERIS_TYPE":"0","TLE_LINE1":"1 55459U 23015L   23152.77175497 -.00001391  00000-0 -87902-4 0  9995","OBJECT_TYPE":"PAYLOAD","MEAN_ELEMENT_THEORY":"SGP4","INCLINATION":"43.0047","LAUNCH_DATE":"2023-02-02","APOAPSIS":"559.985","SITE":"AFETR"},{"SITE":"AFETR","APOAPSIS":"559.974","INCLINATION":"43.0050","LAUNCH_DATE":"2023-02-02","TLE_LINE1":"1 55460U 23015M   23152.83490439 -.00001895  00000-0 -12523-3 0  9995","EPHEMERIS_TYPE":"0","OBJECT_TYPE":"PAYLOAD","MEAN_ELEMENT_THEORY":"SGP4","REF_FRAME":"TEME","MEAN_MOTION_DDOT":"0.0000000000000","PERIOD":"95.838","ARG_OF_PERICENTER":"266.0015","ELEMENT_SET_NO":"999","FILE":"3922718","TIME_SYSTEM":"UTC","COUNTRY_CODE":"US","OBJECT_NAME":"STARLINK-5678","CLASSIFICATION_TYPE":"U","SEMIMAJOR_AXIS":"6937.225","REV_AT_EPOCH":"1854","MEAN_MOTION_DOT":"-0.00001895","GP_ID":"233000775","CENTER_NAME":"EARTH","RA_OF_ASC_NODE":"64.2228","EPOCH":"2023-06-01T20:02:15.739296","MEAN_MOTION":"15.02533156","OBJECT_ID":"2023-015M","BSTAR":"-0.00012523000000","MEAN_ANOMALY":"94.0682","PERIAPSIS":"558.206","NORAD_CAT_ID":"55460","ECCENTRICITY":"0.00012740","TLE_LINE2":"2 55460  43.0050  64.2228 0001274 266.0015  94.0682 15.02533156 18540","DECAY_DATE":null,"RCS_SIZE":"LARGE"},{"TLE_LINE1":"1 55461U 23015N   23152.77286707 -.00001652  00000-0 -10726-3 0  9994","EPHEMERIS_TYPE":"0","OBJECT_TYPE":"PAYLOAD","MEAN_ELEMENT_THEORY":"SGP4","REF_FRAME":"TEME","INCLINATION":"43.0048","LAUNCH_DATE":"2023-02-02","SITE":"AFETR","APOAPSIS":"560.089","CLASSIFICATION_TYPE":"U","COUNTRY_CODE":"US","OBJECT_NAME":"STARLINK-5646","PERIOD":"95.838","ARG_OF_PERICENTER":"266.3397","FILE":"3922718","ELEMENT_SET_NO":"999","TIME_SYSTEM":"UTC","MEAN_MOTION_DDOT":"0.0000000000000","OBJECT_ID":"2023-015N","CENTER_NAME":"EARTH","RA_OF_ASC_NODE":"64.6138","EPOCH":"2023-06-01T18:32:55.714848","MEAN_MOTION":"15.02531075","GP_ID":"233001026","SEMIMAJOR_AXIS":"6937.232","REV_AT_EPOCH":"1853","MEAN_MOTION_DOT":"-0.00001652","RCS_SIZE":"LARGE","DECAY_DATE":null,"NORAD_CAT_ID":"55461","ECCENTRICITY":"0.00014300","TLE_LINE2":"2 55461  43.0048  64.6138 0001430 266.3397  93.7281 15.02531075 18530","MEAN_ANOMALY":"93.7281","PERIAPSIS":"558.105","BSTAR":"-0.00010726000000"},{"SITE":"AFETR","APOAPSIS":"560.081","LAUNCH_DATE":"2023-02-02","INCLINATION":"43.0047","MEAN_ELEMENT_THEORY":"SGP4","OBJECT_TYPE":"PAYLOAD","TLE_LINE1":"1 55462U 23015P   23152.22549223  .00002202  00000-0  17805-3 0  9995","EPHEMERIS_TYPE":"0","REF_FRAME":"TEME","MEAN_MOTION_DDOT":"0.0000000000000","ARG_OF_PERICENTER":"261.4784","PERIOD":"95.838","TIME_SYSTEM":"UTC","ELEMENT_SET_NO":"999","FILE":"3922493","COUNTRY_CODE":"US","OBJECT_NAME":"STARLINK-5673","CLASSIFICATION_TYPE":"U","REV_AT_EPOCH":"1845","SEMIMAJOR_AXIS":"6937.214","MEAN_MOTION_DOT":"0.00002202","GP_ID":"232970074","CENTER_NAME":"EARTH","MEAN_MOTION":"15.02536821","EPOCH":"2023-06-01T05:24:42.528672","RA_OF_ASC_NODE":"67.3854","OBJECT_ID":"2023-015P","BSTAR":"0.00017805000000","MEAN_ANOMALY":"98.5894","PERIAPSIS":"558.077","ECCENTRICITY":"0.00014450","NORAD_CAT_ID":"55462","TLE_LINE2":"2 55462  43.0047  67.3854 0001445 261.4784  98.5894 15.02536821 18455","RCS_SIZE":"LARGE","DECAY_DATE":null},{"OBJECT_ID":"2023-015Q","MEAN_MOTION":"15.02536626","EPOCH":"2023-06-01T05:32:42.116928","RA_OF_ASC_NODE":"67.4276","CENTER_NAME":"EARTH","GP_ID":"232964753","MEAN_MOTION_DOT":"0.00001881","REV_AT_EPOCH":"1845","SEMIMAJOR_AXIS":"6937.215","RCS_SIZE":"LARGE","DECAY_DATE":null,"TLE_LINE2":"2 55463  43.0048  67.4276 0001414 258.5964 101.4719 15.02536626 18452","ECCENTRICITY":"0.00014140","NORAD_CAT_ID":"55463","PERIAPSIS":"558.099","MEAN_ANOMALY":"101.4719","BSTAR":"0.00015429000000","REF_FRAME":"TEME","MEAN_ELEMENT_THEORY":"SGP4","OBJECT_TYPE":"PAYLOAD","TLE_LINE1":"1 55463U 23015Q   23152.23104302  .00001881  00000-0  15429-3 0  9994","EPHEMERIS_TYPE":"0","LAUNCH_DATE":"2023-02-02","INCLINATION":"43.0048","APOAPSIS":"560.061","SITE":"AFETR","CLASSIFICATION_TYPE":"U","COUNTRY_CODE":"US","OBJECT_NAME":"STARLINK-5677","TIME_SYSTEM":"UTC","ELEMENT_SET_NO":"999","FILE":"3922365","ARG_OF_PERICENTER":"258.5964","PERIOD":"95.838","MEAN_MOTION_DDOT":"0.0000000000000"}];
